Unnamed: 0,NORAD_CAT_ID,OBJECT_NAME,EPOCH,MEAN_MOTION,ECCENTRICITY,INCLINATION,RA_OF_ASC_NODE,ARG_OF_PERICENTER,MEAN_ANOMALY,BSTAR,MEAN_MOTION_DOT,MEAN_MOTION_DDOT,TLE_LINE1,TLE_LINE2,SEMIMAJOR_AXIS,PERIOD,APOGEE,PERIGEE,alltitude
2088824,48481,STARLINK-2706,2022-01-16 14:08:53.224224,15.06412233,0.0001505,53.0561,154.1866,83.0084,277.1076,0.00013569,1.741e-05,0,1 48481U 21040BF  22016.58950491  .00001741  00000-0  13569-3 0  9994,2 48481  53.0561 154.1866 0001505  83.0084 277.1076 15.06412233 38280,6925.311,95.591,548.218,546.134,547.926326981675
2084768,48481,STARLINK-2706,2022-01-15 20:37:58.169856,15.06404101,0.0001541,53.0542,157.4634,80.8095,279.3068,0.00010833,1.333e-05,0,1 48481U 21040BF  22015.85970104  .00001333  00000-0  10833-3 0  9994,2 48481  53.0542 157.4634 0001541  80.8095 279.3068 15.06404101 39455,6925.336,95.592,548.268,546.134,547.9070119473529
2083670,48481,STARLINK-2706,2022-01-15 15:51:20.361312,15.06414476,0.0001648,53.0564,158.3554,86.62,273.4978,0.00021528,2.928e-05,0,1 48481U 21040BF  22015.66065233  .00002928  00000-0  21528-3 0  9995,2 48481  53.0564 158.3554 0001648  86.6200 273.4978 15.06414476 38146,6925.304,95.591,548.31,546.028,547.9799383043459
2083669,48481,STARLINK-2706,2022-01-15 15:51:20.361312,15.06414476,0.0001648,53.0564,158.3554,86.62,273.4978,0.00021528,2.928e-05,0,1 48481U 21040BF  22015.66065233  .00002928  00000-0  21528-3 0  9995,2 48481  53.0564 158.3554 0001648  86.6200 273.4978 15.06414476 39428,6925.304,95.591,548.31,546.028,547.9799383043459
2083342,48481,STARLINK-2706,2022-01-15 14:15:48.119616,15.06412881,0.0001647,53.0563,158.6535,84.4893,275.6284,0.00019593,2.639e-05,0,1 48481U 21040BF  22015.59430694  .00002639  00000-0  19593-3 0  9992,2 48481  53.0563 158.6535 0001647  84.4893 275.6284 15.06412881 38131,6925.309,95.591,548.315,546.033,547.9406958695947
2078379,48481,STARLINK-2706,2022-01-14 15:58:16.123296,15.0640901,0.0001747,53.0562,162.8231,85.3261,274.7927,3.7462e-05,2.77e-06,0,1 48481U 21040BF  22014.66546439  .00000277  00000-0  37462-4 0  9996,2 48481  53.0562 162.8231 0001747  85.3261 274.7927 15.06409010 37997,6925.321,95.592,548.396,545.976,547.9633976678955
2078378,48481,STARLINK-2706,2022-01-14 15:58:16.123296,15.0640901,0.0001747,53.0562,162.8231,85.3261,274.7927,3.7462e-05,2.77e-06,0,1 48481U 21040BF  22014.66546439  .00000277  00000-0  37462-4 0  9996,2 48481  53.0562 162.8231 0001747  85.3261 274.7927 15.06409010 39270,6925.321,95.592,548.396,545.976,547.9633976678955
2075348,48481,STARLINK-2706,2022-01-13 22:27:20.836512,15.06401081,0.0001793,53.0561,166.0996,80.8673,279.2518,6.3499e-06,-1.87e-06,0,1 48481U 21040BF  22013.93565783 -.00000187  00000-0  63499-5 0  9999,2 48481  53.0561 166.0996 0001793  80.8673 279.2518 15.06401081 37882,6925.345,95.592,548.452,545.969,547.8947890524853
2075346,48481,STARLINK-2706,2022-01-13 22:27:20.836512,15.06401081,0.0001793,53.0561,166.0996,80.8673,279.2518,6.3499e-06,-1.87e-06,0,1 48481U 21040BF  22013.93565783 -.00000187  00000-0  63499-5 0  9999,2 48481  53.0561 166.0996 0001793  80.8673 279.2518 15.06401081 39165,6925.345,95.592,548.452,545.969,547.8947890524853
2073925,48481,STARLINK-2706,2022-01-13 17:40:43.404672,15.06407507,0.000182,53.0561,166.9931,81.7958,278.3238,5.4973e-05,5.37e-06,0,1 48481U 21040BF  22013.73661348  .00000537  00000-0  54973-4 0  9995,2 48481  53.0561 166.9931 0001820  81.7958 278.3238 15.06407507 37852,6925.326,95.592,548.451,545.93,547.8888512329324
2073924,48481,STARLINK-2706,2022-01-13 17:40:43.404672,15.06407507,0.000182,53.0561,166.9931,81.7958,278.3238,5.4973e-05,5.37e-06,0,1 48481U 21040BF  22013.73661348  .00000537  00000-0  54973-4 0  9995,2 48481  53.0561 166.9931 0001820  81.7958 278.3238 15.06407507 39135,6925.326,95.592,548.451,545.93,547.8888512329324
2070141,48481,STARLINK-2706,2022-01-12 17:47:38.150592,15.06409848,0.000185,53.0559,171.4606,81.9865,278.1334,0.00012431,1.571e-05,0,1 48481U 21040BF  22012.74141378  .00001571  00000-0  12431-3 0  9992,2 48481  53.0559 171.4606 0001850  81.9865 278.1334 15.06409848 37700,6925.318,95.592,548.465,545.902,547.8808649440342
2069825,48481,STARLINK-2706,2022-01-12 14:36:33.621408,15.06407754,0.0001866,53.0558,172.0562,82.003,278.1171,0.00010807,1.329e-05,0,1 48481U 21040BF  22012.60872247  .00001329  00000-0  10807-3 0  9999,2 48481  53.0558 172.0562 0001866  82.0030 278.1171 15.06407754 37680,6925.325,95.592,548.482,545.898,547.8898208868404
2065762,48481,STARLINK-2706,2022-01-11 17:54:33.358752,15.06403067,0.0001889,53.0557,175.9282,81.632,278.4883,0.00011386,1.415e-05,0,1 48481U 21040BF  22011.74621943  .00001415  00000-0  11386-3 0  9997,2 48481  53.0557 175.9282 0001889  81.6320 278.4883 15.06403067 38836,6925.339,95.592,548.512,545.896,547.8914604122338
2065764,48481,STARLINK-2706,2022-01-11 17:54:33.358752,15.06403067,0.0001889,53.0557,175.9282,81.632,278.4883,0.00011386,1.415e-05,0,1 48481U 21040BF  22011.74621943  .00001415  00000-0  11386-3 0  9997,2 48481  53.0557 175.9282 0001889  81.6320 278.4883 15.06403067 37554,6925.339,95.592,548.512,545.896,547.8914604122338
2064571,48481,STARLINK-2706,2022-01-11 13:07:56.383104,15.06401496,0.000189,53.0557,176.8216,81.6697,278.4506,0.00010346,1.26e-05,0,1 48481U 21040BF  22011.54718036  .00001260  00000-0  10346-3 0  9998,2 48481  53.0557 176.8216 0001890  81.6697 278.4506 15.06401496 37523,6925.344,95.592,548.518,545.9,547.8972205023317
2060726,48481,STARLINK-2706,2022-01-10 18:01:28.210944,15.06397347,0.0001897,53.0556,180.3957,80.9979,279.1225,8.5367e-05,9.9e-06,0,1 48481U 21040BF  22010.75102096  .00000990  00000-0  85367-4 0  9998,2 48481  53.0556 180.3957 0001897  80.9979 279.1225 15.06397347 37408,6925.357,95.592,548.535,545.908,547.8926084193149
2059380,48481,STARLINK-2706,2022-01-10 13:14:51.157536,15.06396145,0.00019,53.0555,181.2891,81.0941,279.0263,7.6317e-05,8.55e-06,0,1 48481U 21040BF  22010.55198099  .00000855  00000-0  76317-4 0  9999,2 48481  53.0555 181.2891 0001900  81.0941 279.0263 15.06396145 37372,6925.36,95.592,548.541,545.91,547.897712718774
2058766,48481,STARLINK-2706,2022-01-10 11:39:18.768096,15.06396449,0.0001899,53.0555,181.587,81.0226,279.0977,8.0625e-05,9.19e-06,0,1 48481U 21040BF  22010.48563389  .00000919  00000-0  80625-4 0  9997,2 48481  53.0555 181.5870 0001899  81.0226 279.0977 15.06396449 38645,6925.359,95.592,548.54,545.909,547.900156348824
2055723,48481,STARLINK-2706,2022-01-09 18:08:22.691616,15.06393713,0.0001906,53.0554,184.8631,80.303,279.8175,7.9453e-05,9.02e-06,0,1 48481U 21040BF  22009.75581819  .00000902  00000-0  79453-4 0  9992,2 48481  53.0554 184.8631 0001906  80.3030 279.8175 15.06393713 37254,6925.368,95.593,548.553,545.913,547.8907800402596
2053904,48481,STARLINK-2706,2022-01-09 11:46:13.210752,15.06392533,0.0001906,53.0553,186.0545,79.8597,280.2607,7.2502e-05,7.98e-06,0,1 48481U 21040BF  22009.49043068  .00000798  00000-0  72502-4 0  9993,2 48481  53.0553 186.0545 0001906  79.8597 280.2607 15.06392533 37213,6925.371,95.593,548.556,545.916,547.8804961423847
2052654,48481,STARLINK-2706,2022-01-09 05:24:03.680640,15.06391975,0.0001902,53.0554,187.2459,79.4278,280.6925,7.1419e-05,7.82e-06,0,1 48481U 21040BF  22009.22504260  .00000782  00000-0  71419-4 0  9999,2 48481  53.0554 187.2459 0001902  79.4278 280.6925 15.06391975 38452,6925.373,95.593,548.555,545.921,547.8766995057059
2050789,48481,STARLINK-2706,2022-01-08 18:15:17.133120,15.06390078,0.0001909,53.0553,189.3307,79.3151,280.8053,6.374e-05,6.68e-06,0,1 48481U 21040BF  22008.76061358  .00000668  00000-0  63740-4 0  9994,2 48481  53.0553 189.3307 0001909  79.3151 280.8053 15.06390078 37100,6925.379,95.593,548.566,545.922,547.8737193402002
2049108,48481,STARLINK-2706,2022-01-08 11:53:07.516032,15.06388543,0.0001906,53.0553,190.5221,78.8715,281.2488,5.4004e-05,5.23e-06,0,1 48481U 21040BF  22008.49522588  .00000523  00000-0  54004-4 0  9994,2 48481  53.0553 190.5221 0001906  78.8715 281.2488 15.06388543 37062,6925.384,95.593,548.569,545.929,547.8727964870159
2046932,48481,STARLINK-2706,2022-01-07 21:33:15.909120,15.06386935,0.00019,53.0552,193.2026,78.1747,281.9455,4.9087e-05,4.49e-06,0,1 48481U 21040BF  22007.89810080  .00000449  00000-0  49087-4 0  9996,2 48481  53.0552 193.2026 0001900  78.1747 281.9455 15.06386935 36979,6925.389,95.593,548.569,545.938,547.8659795394693
2046931,48481,STARLINK-2706,2022-01-07 21:33:15.909120,15.06386935,0.00019,53.0552,193.2026,78.1747,281.9455,4.9087e-05,4.49e-06,0,1 48481U 21040BF  22007.89810080  .00000449  00000-0  49087-4 0  9996,2 48481  53.0552 193.2026 0001900  78.1747 281.9455 15.06386935 38252,6925.389,95.593,548.569,545.938,547.8659795394693
2044798,48481,STARLINK-2706,2022-01-07 13:35:33.941184,15.06386351,0.0001895,53.0553,194.6917,77.7779,282.3422,5.0338e-05,4.68e-06,0,1 48481U 21040BF  22007.56636506  .00000468  00000-0  50338-4 0  9991,2 48481  53.0553 194.6917 0001895  77.7779 282.3422 15.06386351 36923,6925.39,95.593,548.568,545.943,547.859863610933
2041274,48481,STARLINK-2706,2022-01-06 20:04:37.450848,15.06392336,0.0001899,53.0553,197.968,76.6776,283.4425,-6.0831e-05,-1.187e-05,0,1 48481U 21040BF  22006.83654457 -.00001187  00000-0 -60831-4 0  9995,2 48481  53.0553 197.9680 0001899  76.6776 283.4425 15.06392336 36818,6925.372,95.593,548.552,545.922,547.8123948329246
2041273,48481,STARLINK-2706,2022-01-06 20:04:37.450848,15.06392336,0.0001899,53.0553,197.968,76.6776,283.4425,-6.0831e-05,-1.187e-05,0,1 48481U 21040BF  22006.83654457 -.00001187  00000-0 -60831-4 0  9995,2 48481  53.0553 197.9680 0001899  76.6776 283.4425 15.06392336 38090,6925.372,95.593,548.552,545.922,547.8123948329246
2038323,48481,STARLINK-2706,2022-01-06 07:20:18.367296,15.0639206,0.0001949,53.0553,200.3507,75.2445,284.876,-5.1677e-05,-1.051e-05,0,1 48481U 21040BF  22006.30576814 -.00001051  00000-0 -51677-4 0  9995,2 48481  53.0553 200.3507 0001949  75.2445 284.8760 15.06392060 36731,6925.373,95.593,548.588,545.888,547.7718050121634
